[
    {
        "Altitude(m)": 576717.9587505584,
        "Argument of Periapsis(deg)": -0.03013754771062987,
        "Eccentricity": 0.0,
        "Inclination(deg)": 97.0,
        "Latitude(deg)": -35.06305016081697,
        "Longitude(deg)": 71.94671330714804,
        "Mean Anomaly(deg)": 215.1223910255833,
        "RAAN(deg)": 0.007929404824681026,
        "Satellite Name": "Starlink Shell 3 1611",
        "Satellite Number": 1611,
        "Semi-Major Axis(m)": 6938478.169268562,
        "Time(s)": 760
    },
    {
        "Altitude(m)": 576969.0696226074,
        "Argument of Periapsis(deg)": -0.030534094391032898,
        "Eccentricity": 0.0,
        "Inclination(deg)": 97.0,
        "Latitude(deg)": -35.681665815671295,
        "Longitude(deg)": 71.79098853475195,
        "Mean Anomaly(deg)": 215.74786722328835,
        "RAAN(deg)": 0.008033739098689987,
        "Satellite Name": "Starlink Shell 3 1611",
        "Satellite Number": 1611,
        "Semi-Major Axis(m)": 6938478.169268562,
        "Time(s)": 770
    },
    {
        "Altitude(m)": 577220.982333011,
        "Argument of Periapsis(deg)": -0.030930641071435925,
        "Eccentricity": 0.0,
        "Inclination(deg)": 97.0,
        "Latitude(deg)": -36.30007980818394,
        "Longitude(deg)": 71.63349882038914,
        "Mean Anomaly(deg)": 216.3733434209934,
        "RAAN(deg)": 0.008138073372698949,
        "Satellite Name": "Starlink Shell 3 1611",
        "Satellite Number": 1611,
        "Semi-Major Axis(m)": 6938478.169268562,
        "Time(s)": 780
    },
    {
        "Altitude(m)": 577473.600059713,
        "Argument of Periapsis(deg)": -0.031327187751838945,
        "Eccentricity": 0.0,
        "Inclination(deg)": 97.0,
        "Latitude(deg)": -36.91828747972144,
        "Longitude(deg)": 71.47417601903122,
        "Mean Anomaly(deg)": 216.99881961869843,
        "RAAN(deg)": 0.008242407646707908,
        "Satellite Name": "Starlink Shell 3 1611",
        "Satellite Number": 1611,
        "Semi-Major Axis(m)": 6938478.169268562,
        "Time(s)": 790
    },
    {
        "Altitude(m)": 577726.8254977409,
        "Argument of Periapsis(deg)": -0.031723734432241975,
        "Eccentricity": 0.0,
        "Inclination(deg)": 97.0,
        "Latitude(deg)": -37.53628402583046,
        "Longitude(deg)": 71.31294847325631,
        "Mean Anomaly(deg)": 217.6242958164035,
        "RAAN(deg)": 0.00834674192071687,
        "Satellite Name": "Starlink Shell 3 1611",
        "Satellite Number": 1611,
        "Semi-Major Axis(m)": 6938478.169268562,
        "Time(s)": 800
    },
    {
        "Altitude(m)": 577980.560903404,
        "Argument of Periapsis(deg)": -0.032120281112645,
        "Eccentricity": 0.0,
        "Inclination(deg)": 97.0,
        "Latitude(deg)": -38.154064485213745,
        "Longitude(deg)": 71.14974133877365,
        "Mean Anomaly(deg)": 218.24977201410854,
        "RAAN(deg)": 0.008451076194725831,
        "Satellite Name": "Starlink Shell 3 1611",
        "Satellite Number": 1611,
        "Semi-Major Axis(m)": 6938478.169268562,
        "Time(s)": 810
    },
    {
        "Altitude(m)": 578234.7081386893,
        "Argument of Periapsis(deg)": -0.03251682779304802,
        "Eccentricity": 0.0,
        "Inclination(deg)": 97.0,
        "Latitude(deg)": -38.77162372789744,
        "Longitude(deg)": 70.98447689750822,
        "Mean Anomaly(deg)": 218.87524821181358,
        "RAAN(deg)": 0.00855541046873479,
        "Satellite Name": "Starlink Shell 3 1611",
        "Satellite Number": 1611,
        "Semi-Major Axis(m)": 6938478.169268562,
        "Time(s)": 820
    },
    {
        "Altitude(m)": 578489.168715746,
        "Argument of Periapsis(deg)": -0.032913374473451044,
        "Eccentricity": 0.0,
        "Inclination(deg)": 97.0,
        "Latitude(deg)": -39.3889564425252,
        "Longitude(deg)": 70.81707334434837,
        "Mean Anomaly(deg)": 219.50072440951863,
        "RAAN(deg)": 0.008659744742743752,
        "Satellite Name": "Starlink Shell 3 1611",
        "Satellite Number": 1611,
        "Semi-Major Axis(m)": 6938478.169268562,
        "Time(s)": 830
    },
    {
        "Altitude(m)": 578743.8438415187,
        "Argument of Periapsis(deg)": -0.03330992115385407,
        "Eccentricity": 0.0,
        "Inclination(deg)": 97.0,
        "Latitude(deg)": -40.00605712270476,
        "Longitude(deg)": 70.64744507217415,
        "Mean Anomaly(deg)": 220.12620060722364,
        "RAAN(deg)": 0.008764079016752713,
        "Satellite Name": "Starlink Shell 3 1611",
        "Satellite Number": 1611,
        "Semi-Major Axis(m)": 6938478.169268562,
        "Time(s)": 840
    },
    {
        "Altitude(m)": 578998.6344624903,
        "Argument of Periapsis(deg)": -0.0337064678342571,
        "Eccentricity": 0.0,
        "Inclination(deg)": 97.0,
        "Latitude(deg)": -40.62292005232816,
        "Longitude(deg)": 70.47550294106468,
        "Mean Anomaly(deg)": 220.75167680492868,
        "RAAN(deg)": 0.008868413290761674,
        "Satellite Name": "Starlink Shell 3 1611",
        "Satellite Number": 1611,
        "Semi-Major Axis(m)": 6938478.169268562,
        "Time(s)": 850
    },
    {
        "Altitude(m)": 579253.4413094557,
        "Argument of Periapsis(deg)": -0.03410301451466012,
        "Eccentricity": 0.0,
        "Inclination(deg)": 97.0,
        "Latitude(deg)": -41.2395392897809,
        "Longitude(deg)": 70.30115284936669,
        "Mean Anomaly(deg)": 221.37715300263372,
        "RAAN(deg)": 0.008972747564770634,
        "Satellite Name": "Starlink Shell 3 1611",
        "Satellite Number": 1611,
        "Semi-Major Axis(m)": 6938478.169268562,
        "Time(s)": 860
    },
    {
        "Altitude(m)": 579508.1649424022,
        "Argument of Periapsis(deg)": -0.034499561195063144,
        "Eccentricity": 0.0,
        "Inclination(deg)": 97.0,
        "Latitude(deg)": -41.85590865094025,
        "Longitude(deg)": 70.12429680756343,
        "Mean Anomaly(deg)": 222.0026292003388,
        "RAAN(deg)": 0.009077081838779597,
        "Satellite Name": "Starlink Shell 3 1611",
        "Satellite Number": 1611,
        "Semi-Major Axis(m)": 6938478.169268562,
        "Time(s)": 870
    },
    {
        "Altitude(m)": 579762.7057953691,
        "Argument of Periapsis(deg)": -0.03489610787546617,
        "Eccentricity": 0.0,
        "Inclination(deg)": 97.0,
        "Latitude(deg)": -42.472021690861474,
        "Longitude(deg)": 69.94483147041177,
        "Mean Anomaly(deg)": 222.62810539804383,
        "RAAN(deg)": 0.009181416112788556,
        "Satellite Name": "Starlink Shell 3 1611",
        "Satellite Number": 1611,
        "Semi-Major Axis(m)": 6938478.169268562,
        "Time(s)": 880
    },
    {
        "Altitude(m)": 580016.9642213566,
        "Argument of Periapsis(deg)": -0.0352926545558692,
        "Eccentricity": 0.0,
        "Inclination(deg)": 97.0,
        "Latitude(deg)": -43.08787168403321,
        "Longitude(deg)": 69.76264832797888,
        "Mean Anomaly(deg)": 223.25358159574887,
        "RAAN(deg)": 0.009285750386797516,
        "Satellite Name": "Starlink Shell 3 1611",
        "Satellite Number": 1611,
        "Semi-Major Axis(m)": 6938478.169268562,
        "Time(s)": 890
    },
    {
        "Altitude(m)": 580270.840537208,
        "Argument of Periapsis(deg)": -0.035689201236272214,
        "Eccentricity": 0.0,
        "Inclination(deg)": 97.0,
        "Latitude(deg)": -43.70345160307483,
        "Longitude(deg)": 69.57763387263947,
        "Mean Anomaly(deg)": 223.8790577934539,
        "RAAN(deg)": 0.009390084660806479,
        "Satellite Name": "Starlink Shell 3 1611",
        "Satellite Number": 1611,
        "Semi-Major Axis(m)": 6938478.169268562,
        "Time(s)": 900
    },
    {
        "Altitude(m)": 580524.2350684482,
        "Argument of Periapsis(deg)": -0.036085747916675244,
        "Eccentricity": 0.0,
        "Inclination(deg)": 97.0,
        "Latitude(deg)": -44.318754095735905,
        "Longitude(deg)": 69.38966822699071,
        "Mean Anomaly(deg)": 224.50453399115895,
        "RAAN(deg)": 0.009494418934815438,
        "Satellite Name": "Starlink Shell 3 1611",
        "Satellite Number": 1611,
        "Semi-Major Axis(m)": 6938478.169268562,
        "Time(s)": 910
    },
    {
        "Altitude(m)": 580777.0481941,
        "Argument of Periapsis(deg)": -0.03648229459707827,
        "Eccentricity": 0.0,
        "Inclination(deg)": 97.0,
        "Latitude(deg)": -44.9337714600395,
        "Longitude(deg)": 69.19862525603196,
        "Mean Anomaly(deg)": 225.130010188864,
        "RAAN(deg)": 0.0095987532088244,
        "Satellite Name": "Starlink Shell 3 1611",
        "Satellite Number": 1611,
        "Semi-Major Axis(m)": 6938478.169268562,
        "Time(s)": 920
    },
    {
        "Altitude(m)": 581029.1803913885,
        "Argument of Periapsis(deg)": -0.0368788412774813,
        "Eccentricity": 0.0,
        "Inclination(deg)": 97.0,
        "Latitude(deg)": -45.548495617397165,
        "Longitude(deg)": 69.00437264809037,
        "Mean Anomaly(deg)": 225.75548638656906,
        "RAAN(deg)": 0.009703087482833361,
        "Satellite Name": "Starlink Shell 3 1611",
        "Satellite Number": 1611,
        "Semi-Major Axis(m)": 6938478.169268562,
        "Time(s)": 930
    },
    {
        "Altitude(m)": 581280.5322803789,
        "Argument of Periapsis(deg)": -0.037275387957884314,
        "Eccentricity": 0.0,
        "Inclination(deg)": 97.0,
        "Latitude(deg)": -46.16291808350563,
        "Longitude(deg)": 68.80677044869537,
        "Mean Anomaly(deg)": 226.3809625842741,
        "RAAN(deg)": 0.00980742175684232,
        "Satellite Name": "Starlink Shell 3 1611",
        "Satellite Number": 1611,
        "Semi-Major Axis(m)": 6938478.169268562,
        "Time(s)": 940
    }
]